NORAD_CAT_ID,OBJECT_NAME,OBJECT_TYPE,EPOCH,MEAN_MOTION,ECCENTRICITY,INCLINATION,RA_OF_ASC_NODE,ARG_OF_PERICENTER,MEAN_ANOMALY,BSTAR,MEAN_MOTION_DOT,MEAN_MOTION_DDOT,TLE_LINE0,TLE_LINE1,TLE_LINE2,SEMIMAJOR_AXIS,PERIOD,APOGEE,PERIGEE,DECAYED
53183.0,STARLINK-4268,PAYLOAD,2023-10-07 00:37:34,15.08830937,0.0001397,53.2154,140.4426,94.1955,265.9197,0.00085522,0.00013346,0.0,0 STARLINK-4268,1 53183U 22083BD  23280.02608844  .00013346  00000-0  85522-3 0  9994,2 53183  53.2154 140.4426 0001397  94.1955 265.9197 15.08830937 68924,6917.908,95.438,540.74,538.807,0.0
53183.0,STARLINK-4268,PAYLOAD,2023-10-07 21:17:34,15.08852541,0.0001246,53.2162,136.5767,90.5279,269.5856,0.0007452,0.00011596,0.0,0 STARLINK-4268,1 53183U 22083BD  23280.88720522  .00011596  00000-0  74520-3 0  9997,2 53183  53.2162 136.5767 0001246  90.5279 269.5856 15.08852541 68410,6917.842,95.437,540.569,538.845,0.0
53183.0,STARLINK-4268,PAYLOAD,2023-10-07 22:52:57,15.08855669,0.0001255,53.2167,136.2794,90.3069,269.8067,0.00080102,0.00012489,0.0,0 STARLINK-4268,1 53183U 22083BD  23280.95344429  .00012489  00000-0  80102-3 0  9998,2 53183  53.2167 136.2794 0001255  90.3069 269.8067 15.08855669 68429,6917.832,95.437,540.566,538.829,0.0
53183.0,STARLINK-4268,PAYLOAD,2023-10-08 17:57:35,15.08848857,0.0001261,53.2161,132.7104,54.3723,305.7386,0.00039675,6.034e-05,0.0,0 STARLINK-4268,1 53183U 22083BD  23281.74832428  .00006034  00000-0  39675-3 0  9995,2 53183  53.2161 132.7104 0001261  54.3723 305.7386 15.08848857 69182,6917.853,95.437,540.591,538.846,0.0
53183.0,STARLINK-4268,PAYLOAD,2023-10-08 21:08:21,15.08853935,0.0001185,53.2161,132.1154,79.8151,280.2975,0.0005079,7.808e-05,0.0,0 STARLINK-4268,1 53183U 22083BD  23281.88080162  .00007808  00000-0  50790-3 0  9991,2 53183  53.2161 132.1154 0001185  79.8151 280.2975 15.08853935 68568,6917.838,95.437,540.523,538.883,0.0
53183.0,STARLINK-4268,PAYLOAD,2023-10-09 06:40:40,15.08846531,0.0001238,53.2158,130.3299,75.7287,284.3842,0.00027347,4.068e-05,0.0,0 STARLINK-4268,1 53183U 22083BD  23282.27824255  .00004068  00000-0  27347-3 0  9991,2 53183  53.2158 130.3299 0001238  75.7287 284.3842 15.08846531 68627,6917.86,95.437,540.582,538.869,0.0
53183.0,STARLINK-4268,PAYLOAD,2023-10-09 17:48:22,15.08841127,0.0001334,53.2162,128.2512,93.3063,266.8082,0.00021467,3.13e-05,0.0,0 STARLINK-4268,1 53183U 22083BD  23282.74192406  .00003130  00000-0  21467-3 0  9995,2 53183  53.2162 128.2512 0001334  93.3063 266.8082 15.08841127 69337,6917.877,95.437,540.665,538.819,0.0
53183.0,STARLINK-4268,PAYLOAD,2023-10-09 20:59:08,15.08841129,0.0001448,53.2164,127.6552,90.6148,269.501,0.00027232,4.049e-05,0.0,0 STARLINK-4268,1 53183U 22083BD  23282.87440460  .00004049  00000-0  27232-3 0  9991,2 53183  53.2164 127.6552 0001448  90.6148 269.5010 15.08841129 68710,6917.877,95.437,540.744,538.74,0.0
53183.0,STARLINK-4268,PAYLOAD,2023-10-10 06:31:27,15.08854003,0.0001387,53.2163,125.8729,92.8107,267.3044,0.00064186,9.946e-05,0.0,0 STARLINK-4268,1 53183U 22083BD  23283.27184102  .00009946  00000-0  64186-3 0  9994,2 53183  53.2163 125.8729 0001387  92.8107 267.3044 15.08854003 68770,6917.838,95.437,540.662,538.743,0.0
53183.0,STARLINK-4268,PAYLOAD,2023-10-10 17:39:08,15.08874071,0.0001275,53.216,123.7912,96.764,263.3498,0.00101,0.00015838,0.0,0 STARLINK-4268,1 53183U 22083BD  23283.73551187  .00015838  00000-0  10100-2 0  9999,2 53183  53.2160 123.7912 0001275  96.7640 263.3498 15.08874071 69484,6917.776,95.435,540.523,538.759,0.0
53183.0,STARLINK-4268,PAYLOAD,2023-10-10 20:49:54,15.08877104,0.0001283,53.216,123.1968,94.488,265.6259,0.00093679,0.00014668,0.0,0 STARLINK-4268,1 53183U 22083BD  23283.86798873  .00014668  00000-0  93679-3 0  9991,2 53183  53.2160 123.1968 0001283  94.4880 265.6259 15.08877104 68860,6917.767,95.435,540.52,538.744,0.0
53183.0,STARLINK-4268,PAYLOAD,2023-10-11 06:22:13,15.08856692,0.0001371,53.2155,121.4109,87.0484,273.0665,8.6423e-05,1.088e-05,0.0,0 STARLINK-4268,1 53183U 22083BD  23284.26542831  .00001088  00000-0  86423-4 0  9999,2 53183  53.2155 121.4109 0001371  87.0484 273.0665 15.08856692 69569,6917.829,95.436,540.643,538.746,0.0
53183.0,STARLINK-4268,PAYLOAD,2023-10-11 12:43:45,15.08834103,0.0001508,53.2151,120.2233,87.4694,272.6471,-0.000513,-8.442e-05,0.0,0 STARLINK-4268,1 53183U 22083BD  23284.53039283 -.00008442  00000-0 -51300-3 0  9999,2 53183  53.2151 120.2233 0001508  87.4694 272.6471 15.08834103 68965,6917.898,95.438,540.807,538.72,0.0
53183.0,STARLINK-4268,PAYLOAD,2023-10-11 19:05:18,15.08830866,0.000131,53.2146,119.0329,87.5869,272.5273,-6.5181e-05,-1.325e-05,0.0,0 STARLINK-4268,1 53183U 22083BD  23284.79535581 -.00001325  00000-0 -65181-4 0  9995,2 53183  53.2146 119.0329 0001310  87.5869 272.5273 15.08830866 69644,6917.908,95.438,540.68,538.867,0.0
53183.0,STARLINK-4268,PAYLOAD,2023-10-12 12:34:33,15.0883902,0.000142,53.214,115.7625,84.1625,275.9529,0.0010311,0.0001616,0.0,0 STARLINK-4268,1 53183U 22083BD  23285.52400420  .00016160  00000-0  10311-2 0  9994,2 53183  53.2140 115.7625 0001420  84.1625 275.9529 15.08839020 69119,6917.883,95.438,540.731,538.766,0.0
53183.0,STARLINK-4268,PAYLOAD,2023-10-12 20:31:29,15.08851679,0.0001412,53.214,114.2749,84.9569,275.1584,0.0011527,0.00018111,0.0,0 STARLINK-4268,1 53183U 22083BD  23285.85520283  .00018111  00000-0  11527-2 0  9998,2 53183  53.2140 114.2749 0001412  84.9569 275.1584 15.08851679 69168,6917.845,95.437,540.686,538.733,0.0
53183.0,STARLINK-4268,PAYLOAD,2023-10-13 06:03:48,15.08848734,0.0001474,53.2151,112.4901,90.9027,269.2134,0.0007571,0.00011785,0.0,0 STARLINK-4268,1 53183U 22083BD  23286.25264391  .00011785  00000-0  75710-3 0  9993,2 53183  53.2151 112.4901 0001474  90.9027 269.2134 15.08848734 69864,6917.854,95.437,540.738,538.699,0.0
53183.0,STARLINK-4268,PAYLOAD,2023-10-13 18:46:53,15.08842844,0.0001393,53.214,110.1112,92.854,267.2611,0.00040773,6.208e-05,0.0,0 STARLINK-4268,1 53183U 22083BD  23286.78256507  .00006208  00000-0  40773-3 0  9996,2 53183  53.2140 110.1112 0001393  92.8540 267.2611 15.08842844 69945,6917.872,95.437,540.7,538.773,0.0
53183.0,STARLINK-4268,PAYLOAD,2023-10-14 12:16:08,15.08842124,0.0001756,53.2137,106.8385,99.1747,260.9444,0.00049345,7.574e-05,0.0,0 STARLINK-4268,1 53183U 22083BD  23287.51120706  .00007574  00000-0  49345-3 0  9990,2 53183  53.2137 106.8385 0001756  99.1747 260.9444 15.08842124 69414,6917.874,95.437,540.954,538.524,0.0
53183.0,STARLINK-4268,PAYLOAD,2023-10-14 18:37:40,15.0884497,0.0001372,53.215,105.6494,84.9999,275.115,0.00029123,4.351e-05,0.0,0 STARLINK-4268,1 53183U 22083BD  23287.77616634  .00004351  00000-0  29123-3 0  9990,2 53183  53.2150 105.6494 0001372  84.9999 275.1150 15.08844970 70091,6917.865,95.437,540.679,538.781,0.0
53183.0,STARLINK-4268,PAYLOAD,2023-10-15 12:06:55,15.08840854,0.0001382,53.215,102.3788,84.8407,275.2743,0.00020015,2.899e-05,0.0,0 STARLINK-4268,1 53183U 22083BD  23288.50480865  .00002899  00000-0  20015-3 0  9993,2 53183  53.2150 102.3788 0001382  84.8407 275.2743 15.08840854 70204,6917.878,95.438,540.699,538.787,0.0
53183.0,STARLINK-4268,PAYLOAD,2023-10-15 18:28:27,15.08844129,0.0001343,53.2153,101.189,86.1751,273.9395,0.00022656,3.32e-05,0.0,0 STARLINK-4268,1 53183U 22083BD  23288.76976731  .00003320  00000-0  22656-3 0  9996,2 53183  53.2153 101.1890 0001343  86.1751 273.9395 15.08844129 69601,6917.868,95.437,540.662,538.804,0.0
53183.0,STARLINK-4268,PAYLOAD,2023-10-16 11:57:42,15.08837871,0.0001401,53.2154,97.918,84.0664,276.0488,3.2758e-05,2.33e-06,0.0,0 STARLINK-4268,1 53183U 22083BD  23289.49840959  .00000233  00000-0  32758-4 0  9994,2 53183  53.2154  97.9180 0001401  84.0664 276.0488 15.08837871 69716,6917.887,95.438,540.721,538.783,0.0
53183.0,STARLINK-4268,PAYLOAD,2023-10-16 16:43:51,15.08840712,0.0001405,53.2157,97.0262,84.7572,275.3581,8.3971e-05,1.049e-05,0.0,0 STARLINK-4268,1 53183U 22083BD  23289.69712871  .00001049  00000-0  83971-4 0  9996,2 53183  53.2157  97.0262 0001405  84.7572 275.3581 15.08840712 70389,6917.878,95.438,540.715,538.771,0.0
53183.0,STARLINK-4268,PAYLOAD,2023-10-17 11:48:29,15.08840163,0.0001552,53.218,93.4606,98.8106,261.3062,5.7627e-05,6.29e-06,0.0,0 STARLINK-4268,1 53183U 22083BD  23290.49200828  .00000629  00000-0  57627-4 0  9992,2 53183  53.2180  93.4606 0001552  98.8106 261.3062 15.08840163 69869,6917.88,95.438,540.819,538.671,0.0
53183.0,STARLINK-4268,PAYLOAD,2023-10-17 18:10:02,15.08843107,0.0001528,53.2183,92.2711,96.1529,263.9637,0.00011268,1.506e-05,0.0,0 STARLINK-4268,1 53183U 22083BD  23290.75696940  .00001506  00000-0  11268-3 0  9990,2 53183  53.2183  92.2711 0001528  96.1529 263.9637 15.08843107 70543,6917.871,95.437,540.793,538.679,0.0
53183.0,STARLINK-4268,PAYLOAD,2023-10-18 13:14:40,15.08836368,0.0001426,53.2167,88.6994,85.7142,274.4013,0.00014582,2.033e-05,0.0,0 STARLINK-4268,1 53183U 22083BD  23291.55185468  .00002033  00000-0  14582-3 0  9995,2 53183  53.2167  88.6994 0001426  85.7142 274.4013 15.08836368 70668,6917.891,95.438,540.743,538.77,0.0
53183.0,STARLINK-4268,PAYLOAD,2023-10-19 03:33:09,15.08807902,0.0001694,53.2179,86.0245,109.0191,251.0985,0.00086485,0.00013491,0.0,0 STARLINK-4268,1 53183U 22083BD  23292.14802775  .00013491  00000-0  86485-3 0  9999,2 53183  53.2179  86.0245 0001694 109.0191 251.0985 15.08807902 70754,6917.979,95.44,541.015,538.672,0.0
53183.0,STARLINK-4268,PAYLOAD,2023-10-19 09:54:40,15.08851972,0.0002647,53.2156,84.8347,82.8368,277.2925,-4.4807e-05,-1.002e-05,0.0,0 STARLINK-4268,1 53183U 22083BD  23292.41296446 -.00001002  00000-0 -44807-4 0  9991,2 53183  53.2156  84.8347 0002647  82.8368 277.2925 15.08851972 70795,6917.844,95.437,541.54,537.878,0.0
53183.0,STARLINK-4268,PAYLOAD,2023-10-19 13:05:26,15.08850922,0.000234,53.2157,84.2394,81.8778,278.248,-8.7049e-05,-1.674e-05,0.0,0 STARLINK-4268,1 53183U 22083BD  23292.54544401 -.00001674  00000-0 -87049-4 0  9992,2 53183  53.2157  84.2394 0002340  81.8778 278.2480 15.08850922 70179,6917.847,95.437,541.331,538.093,0.0
